GPS BIIR-5  (PRN 22)    
1 26407U 00040A   26185.72406970  .00000073  00000+0  00000+0 0  9998
2 26407  54.8496 214.4657 0120731 302.6201  43.3862  2.00557820190290
GPS BIIR-8  (PRN 16)    
1 27663U 03005A   26185.06323735  .00000070  00000+0  00000+0 0  9998
2 27663  54.8802 214.2982 0148096  53.1273 311.8752  2.00559687171659
GPS BIIR-11 (PRN 19)    
1 28190U 04009A   26185.33985068 -.00000020  00000+0  00000+0 0  9998
2 28190  54.8153 274.9939 0116793 173.8654 183.6312  2.00554193163285
GPS BIIR-13 (PRN 02)    
1 28474U 04045A   26185.74835539 -.00000069  00000+0  00000+0 0  9998
2 28474  55.1251 324.1893 0170017 316.8171  40.6346  2.00556723158770
GPS BIIRM-1 (PRN 17)    
1 28874U 05038A   26185.84035304 -.00000017  00000+0  00000+0 0  9991
2 28874  54.8637 272.4647 0128095 296.3016  91.8878  2.00564490152197
GPS BIIRM-2 (PRN 31)    
1 29486U 06042A   26184.96127436  .00000065  00000+0  00000+0 0  9999
2 29486  54.7124 150.6730 0106946  54.8662 317.3308  2.00568928144737
GPS BIIRM-3 (PRN 12)    
1 29601U 06052A   26184.37329749  .00000068  00000+0  00000+0 0  9998
2 29601  54.9334 213.3645 0084858  90.9443 270.0914  2.00559061143733
GPS BIIRM-4 (PRN 15)    
1 32260U 07047A   26184.67866669 -.00000021  00000+0  00000+0 0  9998
2 32260  54.1070  79.3860 0167385  87.7388 274.2261  2.00554543137144
GPS BIIRM-5 (PRN 29)    
1 32384U 07062A   26185.49975398 -.00000018  00000+0  00000+0 0  9999
2 32384  55.0179 273.4562 0035951 166.7855 193.7684  2.00561107135862
GPS BIIRM-6 (PRN 07)    
1 32711U 08012A   26186.08410476  .00000073  00000+0  00000+0 0  9996
2 32711  54.4993 149.2099 0211566 248.0460 109.6695  2.00572897134115
GPS BIIRM-8 (PRN 05)    
1 35752U 09043A   26185.31102860 -.00000059  00000+0  00000+0 0  9994
2 35752  56.2210  26.7798 0053802  83.9260  86.3327  2.00553427123705
GPS BIIF-1  (PRN 25)    
1 36585U 10022A   26186.15975706  .00000082  00000+0  00000+0 0  9993
2 36585  54.2693 207.8381 0126534  66.1440 116.3083  2.00563302117955
GPS BIIF-3  (PRN 24)    
1 38833U 12053A   26185.76601240  .00000062  00000+0  00000+0 0  9990
2 38833  53.5885 142.8793 0181360  66.0414 295.8176  2.00567790 99793
GPS BIIF-4  (PRN 27)    
1 39166U 13023A   26186.13203941 -.00000011  00000+0  00000+0 0  9991
2 39166  54.4903 268.2422 0141416  51.0963 310.2244  2.00563419 96246
GPS BIIF-5  (PRN 30)    
1 39533U 14008A   26185.63523743  .00000067  00000+0  00000+0 0  9992
2 39533  53.6568 148.6082 0084194 231.4719 127.7443  2.00560936 90031
GPS BIIF-6  (PRN 06)    
1 39741U 14026A   26185.91103503 -.00000069  00000+0  00000+0 0  9995
2 39741  56.4890 330.8280 0038108 326.0828  33.6762  2.00559746 88899
GPS BIIF-7  (PRN 09)    
1 40105U 14045A   26185.50425068 -.00000009  00000+0  00000+0 0  9994
2 40105  55.3639  87.7751 0034058 118.3275 242.0574  2.00559608 86424
GPS BIIF-8  (PRN 03)    
1 40294U 14068A   26183.37856302 -.00000059  00000+0  00000+0 0  9995
2 40294  56.9979  30.3698 0067370  71.1337 289.6561  2.00577219 85519
GPS BIIF-9  (PRN 26)    
1 40534U 15013A   26185.51364044  .00000078  00000+0  00000+0 0  9998
2 40534  53.1670 203.4610 0109991  40.2716 320.5801  2.00550348 82179
GPS BIIF-10 (PRN 08)    
1 40730U 15033A   26185.67196386 -.00000008  00000+0  00000+0 0  9991
2 40730  53.9691 266.3653 0115213  30.2668 330.4655  2.00555354 80348
GPS BIIF-11 (PRN 10)    
1 41019U 15062A   26185.22871142 -.00000056  00000+0  00000+0 0  9998
2 41019  56.9708  30.1551 0112434 230.9350 128.1122  2.00567024 78170
GPS BIIF-12 (PRN 32)    
1 41328U 16007A   26184.82206197 -.00000008  00000+0  00000+0 0  9995
2 41328  55.5329  88.8003 0096059 247.4210 111.5990  2.00575935 76178
GPS BIII-1  (PRN 04)    
1 43873U 18109A   26184.73524920 -.00000005  00000+0  00000+0 0  9991
2 43873  55.6910  91.5344 0038559 197.4684 354.7406  2.00562540 55405
GPS BIII-2  (PRN 18)    
1 44506U 19056A   26185.84945336 -.00000070  00000+0  00000+0 0  9990
2 44506  55.6279 330.4419 0062939 197.9329 342.8878  2.00570103 50427
GPS BIII-3  (PRN 23)    
1 45854U 20041A   26184.41938361 -.00000059  00000+0  00000+0 0  9992
2 45854  56.6609  28.3098 0065536 210.5872 315.2472  2.00558496 44360
GPS BIII-4  (PRN 14)    
1 46826U 20078A   26185.21572547  .00000073  00000+0  00000+0 0  9996
2 46826  53.9786 210.0881 0074174 207.5557 150.2596  2.00565046 41843
GPS BIII-5  (PRN 11)    
1 48859U 21054A   26185.96152687 -.00000071  00000+0  00000+0 0  9999
2 48859  55.1656 331.7461 0026095 228.4283 134.2406  2.00567994 37114
GPS BIII-6  (PRN 28)    
1 55268U 23009A   26182.76388889  .00000040  00000+0  00000+0 0  9998
2 55268  55.1238 147.9465 0006262 318.3854 293.8670  2.00571084 25533
GPS BIII-7  (PRN 01)    
1 62339U 24242A   26180.81572751 -.00000094  00000+0  00000+0 0  9992
2 62339  54.8437 333.6698 0017626   4.4449   3.3802  2.00572141 11517
GPS BIII-8  (PRN 21)    
1 64202U 25116A   26186.02902980 -.00000058  00000+0  00000+0 0  9994
2 64202  55.2485  30.4134 0008297 339.7597  15.5425  2.00574704  8222
GPS BIII-9  (PRN 20)    
1 67588U 26017A   26184.15130388 -.00000011  00000+0  00000+0 0  9991
2 67588  55.0981  88.1147 0021554 259.0421 100.7528  2.00570852431935
GPS BIII-10 (PRN 13)    
1 68791U 26087A   26185.85968388  .00000081  00000+0  00000+0 0  9998
2 68791  54.9625 207.0890 0020607 106.7384 252.2730  2.00571858  1181
